{
  "type": "FeatureCollection",
  "features": [
    {
      "type": "Feature",
      "properties": {
        "norad_id": 34907,
        "name": "COSMOS 2251 DEB",
        "group": "cosmos-2251-debris",
        "lat": -59.12236110959532,
        "lon": -124.06618446828217,
        "alt_km": 420.2547026592256,
        "timestamp": "2025-12-22T09:53:37.795528+00:00",
        "meta_object_name": "COSMOS 2251 DEB",
        "meta_object_id": "1993-036ADC",
        "meta_epoch": "2025-12-21T12:42:42.511680",
        "meta_mean_motion": 15.49920012,
        "meta_eccentricity": 0.0018559,
        "meta_inclination": 73.9666,
        "meta_ra_of_asc_node": 29.1312,
        "meta_arg_of_pericenter": 328.4772,
        "meta_mean_anomaly": 31.5327,
        "meta_ephemeris_type": 0,
        "meta_classification_type": "U",
        "meta_norad_cat_id": 34907,
        "meta_element_set_no": 999,
        "meta_rev_at_epoch": 88109,
        "meta_bstar": 0.006372,
        "meta_mean_motion_dot": 0.00375951,
        "meta_mean_motion_ddot": 0,
        "tle_line1": "1 34907U 93036ADC 25355.52965870  .00375951  00000+0  63720-2 0  9995",
        "tle_line2": "2 34907  73.9666  29.1312 0018559 328.4772  31.5327 15.49920012881091"
      },
      "geometry": {
        "type": "Point",
        "coordinates": [
          -124.06618446828217,
          -59.12236110959532
        ]
      }
    },
    {
      "type": "Feature",
      "properties": {
        "norad_id": 34908,
        "name": "COSMOS 2251 DEB",
        "group": "cosmos-2251-debris",
        "lat": 62.5951659589716,
        "lon": 39.340027755560826,
        "alt_km": 741.2830731687654,
        "timestamp": "2025-12-22T09:53:37.795538+00:00",
        "meta_object_name": "COSMOS 2251 DEB",
        "meta_object_id": "1993-036ADD",
        "meta_epoch": "2025-12-21T19:23:25.564128",
        "meta_mean_motion": 14.37423542,
        "meta_eccentricity": 0.0040488,
        "meta_inclination": 74.0578,
        "meta_ra_of_asc_node": 6.9921,
        "meta_arg_of_pericenter": 20.3399,
        "meta_mean_anomaly": 160.9032,
        "meta_ephemeris_type": 0,
        "meta_classification_type": "U",
        "meta_norad_cat_id": 34908,
        "meta_element_set_no": 999,
        "meta_rev_at_epoch": 87409,
        "meta_bstar": 0.00042947,
        "meta_mean_motion_dot": 1.27e-05,
        "meta_mean_motion_ddot": 0,
        "tle_line1": "1 34908U 93036ADD 25355.80793477  .00001270  00000+0  42947-3 0  9998",
        "tle_line2": "2 34908  74.0578   6.9921 0040488  20.3399 160.9032 14.37423542874098"
      },
      "geometry": {
        "type": "Point",
        "coordinates": [
          39.340027755560826,
          62.5951659589716
        ]
      }
    },
    {
      "type": "Feature",
      "properties": {
        "norad_id": 34909,
        "name": "COSMOS 2251 DEB",
        "group": "cosmos-2251-debris",
        "lat": 11.370108428121181,
        "lon": -125.74934674511275,
        "alt_km": 582.7886687950831,
        "timestamp": "2025-12-22T09:53:37.795548+00:00",
        "meta_object_name": "COSMOS 2251 DEB",
        "meta_object_id": "1993-036ADE",
        "meta_epoch": "2025-12-22T04:15:34.679808",
        "meta_mean_motion": 14.7790717,
        "meta_eccentricity": 0.0083872,
        "meta_inclination": 74.0141,
        "meta_ra_of_asc_node": 58.0168,
        "meta_arg_of_pericenter": 191.6424,
        "meta_mean_anomaly": 168.2815,
        "meta_ephemeris_type": 0,
        "meta_classification_type": "U",
        "meta_norad_cat_id": 34909,
        "meta_element_set_no": 999,
        "meta_rev_at_epoch": 66991,
        "meta_bstar": 0.00050699,
        "meta_mean_motion_dot": 3.836e-05,
        "meta_mean_motion_ddot": 0,
        "tle_line1": "1 34909U 93036ADE 25356.17748472  .00003836  00000+0  50699-3 0  9998",
        "tle_line2": "2 34909  74.0141  58.0168 0083872 191.6424 168.2815 14.77907170669912"
      },
      "geometry": {
        "type": "Point",
        "coordinates": [
          -125.74934674511275,
          11.370108428121181
        ]
      }
    },
    {
      "type": "Feature",
      "properties": {
        "norad_id": 34910,
        "name": "COSMOS 2251 DEB",
        "group": "cosmos-2251-debris",
        "lat": -61.190784233467504,
        "lon": 54.429079207504124,
        "alt_km": 1112.7085885144224,
        "timestamp": "2025-12-22T09:53:37.795558+00:00",
        "meta_object_name": "COSMOS 2251 DEB",
        "meta_object_id": "1993-036ADF",
        "meta_epoch": "2025-12-21T14:51:00.254880",
        "meta_mean_motion": 13.37701578,
        "meta_eccentricity": 0.0467839,
        "meta_inclination": 73.8764,
        "meta_ra_of_asc_node": 87.4128,
        "meta_arg_of_pericenter": 204.8988,
        "meta_mean_anomaly": 224.1409,
        "meta_ephemeris_type": 0,
        "meta_classification_type": "U",
        "meta_norad_cat_id": 34910,
        "meta_element_set_no": 999,
        "meta_rev_at_epoch": 81643,
        "meta_bstar": 0.00088658,
        "meta_mean_motion_dot": 8.55e-06,
        "meta_mean_motion_ddot": 0,
        "tle_line1": "1 34910U 93036ADF 25355.61875295  .00000855  00000+0  88658-3 0  9996",
        "tle_line2": "2 34910  73.8764  87.4128 0467839 204.8988 224.1409 13.37701578816436"
      },
      "geometry": {
        "type": "Point",
        "coordinates": [
          54.429079207504124,
          -61.190784233467504
        ]
      }
    },
    {
      "type": "Feature",
      "properties": {
        "norad_id": 34911,
        "name": "COSMOS 2251 DEB",
        "group": "cosmos-2251-debris",
        "lat": -18.666345712365985,
        "lon": -139.23667241474206,
        "alt_km": 641.0785694442811,
        "timestamp": "2025-12-22T09:53:37.795568+00:00",
        "meta_object_name": "COSMOS 2251 DEB",
        "meta_object_id": "1993-036ADG",
        "meta_epoch": "2025-12-22T02:26:52.952064",
        "meta_mean_motion": 14.59385531,
        "meta_eccentricity": 0.0084044,
        "meta_inclination": 74.0407,
        "meta_ra_of_asc_node": 226.9021,
        "meta_arg_of_pericenter": 349.9648,
        "meta_mean_anomaly": 161.5758,
        "meta_ephemeris_type": 0,
        "meta_classification_type": "U",
        "meta_norad_cat_id": 34911,
        "meta_element_set_no": 999,
        "meta_rev_at_epoch": 88723,
        "meta_bstar": 0.00010574,
        "meta_mean_motion_dot": 4.93e-06,
        "meta_mean_motion_ddot": 0,
        "tle_line1": "1 34911U 93036ADG 25356.10200176  .00000493  00000+0  10574-3 0  9992",
        "tle_line2": "2 34911  74.0407 226.9021 0084044 349.9648 161.5758 14.59385531887232"
      },
      "geometry": {
        "type": "Point",
        "coordinates": [
          -139.23667241474206,
          -18.666345712365985
        ]
      }
    },
    {
      "type": "Feature",
      "properties": {
        "norad_id": 34913,
        "name": "COSMOS 2251 DEB",
        "group": "cosmos-2251-debris",
        "lat": -22.24523499420143,
        "lon": 91.50005314563194,
        "alt_km": 795.8058940837318,
        "timestamp": "2025-12-22T09:53:37.795578+00:00",
        "meta_object_name": "COSMOS 2251 DEB",
        "meta_object_id": "1993-036ADJ",
        "meta_epoch": "2025-12-21T12:00:36.342432",
        "meta_mean_motion": 14.34639943,
        "meta_eccentricity": 0.00207047,
        "meta_inclination": 74.0285,
        "meta_ra_of_asc_node": 266.4434,
        "meta_arg_of_pericenter": 13.9816,
        "meta_mean_anomaly": 161.7419,
        "meta_ephemeris_type": 0,
        "meta_classification_type": "U",
        "meta_norad_cat_id": 34913,
        "meta_element_set_no": 999,
        "meta_rev_at_epoch": 65313,
        "meta_bstar": 4.3870278e-05,
        "meta_mean_motion_dot": 9.8e-07,
        "meta_mean_motion_ddot": 0,
        "tle_line1": "1 34913U 93036ADJ 25355.50042063  .00000098  00000+0  43870-4 0  9993",
        "tle_line2": "2 34913  74.0285 266.4434 0020704  13.9816 161.7419 14.34639943653131"
      },
      "geometry": {
        "type": "Point",
        "coordinates": [
          91.50005314563194,
          -22.24523499420143
        ]
      }
    },
    {
      "type": "Feature",
      "properties": {
        "norad_id": 34918,
        "name": "COSMOS 2251 DEB",
        "group": "cosmos-2251-debris",
        "lat": -15.41579740971195,
        "lon": 119.68834182345442,
        "alt_km": 683.3255393291183,
        "timestamp": "2025-12-22T09:53:37.795588+00:00",
        "meta_object_name": "COSMOS 2251 DEB",
        "meta_object_id": "1993-036ADP",
        "meta_epoch": "2025-12-21T14:05:26.774880",
        "meta_mean_motion": 14.61333031,
        "meta_eccentricity": 0.0033087,
        "meta_inclination": 74.0718,
        "meta_ra_of_asc_node": 296.7456,
        "meta_arg_of_pericenter": 262.7787,
        "meta_mean_anomaly": 274.4433,
        "meta_ephemeris_type": 0,
        "meta_classification_type": "U",
        "meta_norad_cat_id": 34918,
        "meta_element_set_no": 999,
        "meta_rev_at_epoch": 65465,
        "meta_bstar": 0.0013097,
        "meta_mean_motion_dot": 6.498e-05,
        "meta_mean_motion_ddot": 0,
        "tle_line1": "1 34918U 93036ADP 25355.58711545  .00006498  00000+0  13097-2 0  9990",
        "tle_line2": "2 34918  74.0718 296.7456 0033087 262.7787 274.4433 14.61333031654651"
      },
      "geometry": {
        "type": "Point",
        "coordinates": [
          119.68834182345442,
          -15.41579740971195
        ]
      }
    }
  ]
}